[Satellite]
VERSION=1.1
NAME=CLUSTER II-FM8 (TANGO)
NICKNAME=CLUSTER II-FM8 (TANGO)
TLE1=1 26464U 00045B   20158.03318835  .00000379  00000-0  00000+0 0  9996
TLE2=2 26464 131.8528 341.5559 4381270 182.9249   0.0755  0.44219299 58217
STATUS=0
